NORAD_CAT_ID,OBJECT_NAME,OBJECT_TYPE,EPOCH,MEAN_MOTION,ECCENTRICITY,INCLINATION,RA_OF_ASC_NODE,ARG_OF_PERICENTER,MEAN_ANOMALY,BSTAR,MEAN_MOTION_DOT,MEAN_MOTION_DDOT,TLE_LINE0,TLE_LINE1,TLE_LINE2,SEMIMAJOR_AXIS,PERIOD,APOGEE,PERIGEE,DECAYED
53702.0,STARLINK-4724,PAYLOAD,2024-02-29 20:00:02,15.08845295,0.0001501,53.2165,305.8764,82.2419,277.8743,0.0001769,2.529e-05,0.0,0 STARLINK-4724,1 53702U 22107C   24060.83335863  .00002529  00000-0  17690-3 0  9994,2 53702  53.2165 305.8764 0001501  82.2419 277.8743 15.08845295 82776,6917.864,95.437,540.768,538.691,0.0
53702.0,STARLINK-4724,PAYLOAD,2024-02-29 21:35:25,15.08844989,0.0001502,53.2166,305.579,82.1847,277.9315,0.00015821,2.231e-05,0.0,0 STARLINK-4724,1 53702U 22107C   24060.89959834  .00002231  00000-0  15821-3 0  9994,2 53702  53.2166 305.5790 0001502  82.1847 277.9315 15.08844989 83561,6917.865,95.437,540.769,538.691,0.0
53702.0,STARLINK-4724,PAYLOAD,2024-03-01 08:43:07,15.08842091,0.0001499,53.2167,303.4981,81.288,278.8282,8.2389e-05,1.024e-05,0.0,0 STARLINK-4724,1 53702U 22107C   24061.36327947  .00001024  00000-0  82389-4 0  9994,2 53702  53.2167 303.4981 0001499  81.2880 278.8282 15.08842091 83636,6917.874,95.437,540.776,538.702,0.0
53702.0,STARLINK-4724,PAYLOAD,2024-03-01 21:26:12,15.08843254,0.0001576,53.2175,301.1227,100.0833,260.0337,6.6805e-05,7.75e-06,0.0,0 STARLINK-4724,1 53702U 22107C   24061.89319804  .00000775  00000-0  66805-4 0  9992,2 53702  53.2175 301.1227 0001576 100.0833 260.0337 15.08843254 82935,6917.87,95.437,540.826,538.645,0.0
53702.0,STARLINK-4724,PAYLOAD,2024-03-01 23:01:35,15.08844174,0.0001525,53.2174,300.8255,98.0653,262.0512,7.5154e-05,9.08e-06,0.0,0 STARLINK-4724,1 53702U 22107C   24061.95943808  .00000908  00000-0  75154-4 0  9991,2 53702  53.2174 300.8255 0001525  98.0653 262.0512 15.08844174 83728,6917.868,95.437,540.788,538.678,0.0
53702.0,STARLINK-4724,PAYLOAD,2024-03-02 19:41:36,15.0883463,0.0001467,53.217,296.9539,95.9941,264.1218,-4.5189e-05,-1.007e-05,0.0,0 STARLINK-4724,1 53702U 22107C   24062.82056436 -.00001007  00000-0 -45189-4 0  9998,2 53702  53.2170 296.9539 0001467  95.9941 264.1218 15.08834630 83075,6917.897,95.438,540.777,538.747,0.0
53702.0,STARLINK-4724,PAYLOAD,2024-03-02 21:17:00,15.08831072,0.0001407,53.2167,296.6565,86.2346,273.8807,-9.439e-05,-1.789e-05,0.0,0 STARLINK-4724,1 53702U 22107C   24062.88680629 -.00001789  00000-0 -94390-4 0  9996,2 53702  53.2167 296.6565 0001407  86.2346 273.8807 15.08831072 83868,6917.908,95.438,540.746,538.799,0.0
53702.0,STARLINK-4724,PAYLOAD,2024-03-03 00:27:47,15.08828312,0.0001473,53.2181,296.0668,100.6233,259.4925,-5.8016e-05,-1.211e-05,0.0,0 STARLINK-4724,1 53702U 22107C   24063.01929502 -.00001211  00000-0 -58016-4 0  9993,2 53702  53.2181 296.0668 0001473 100.6233 259.4925 15.08828312 83102,6917.916,95.438,540.8,538.762,0.0
53702.0,STARLINK-4724,PAYLOAD,2024-03-03 08:24:42,15.08832421,0.0001394,53.2169,294.5749,83.3298,276.7853,8.051e-06,-1.6e-06,0.0,0 STARLINK-4724,1 53702U 22107C   24063.35049264 -.00000160  00000-0  80510-5 0  9994,2 53702  53.2169 294.5749 0001394  83.3298 276.7853 15.08832421 83930,6917.904,95.438,540.733,538.804,0.0
53702.0,STARLINK-4724,PAYLOAD,2024-03-03 19:32:24,15.08836973,0.0001226,53.2171,292.4926,77.3661,282.7468,0.00013999,1.941e-05,0.0,0 STARLINK-4724,1 53702U 22107C   24063.81416729  .00001941  00000-0  13999-3 0  9991,2 53702  53.2171 292.4926 0001226  77.3661 282.7468 15.08836973 84002,6917.89,95.438,540.603,538.907,0.0
53702.0,STARLINK-4724,PAYLOAD,2024-03-04 00:18:32,15.0884843,0.0001383,53.2165,291.6015,106.566,253.5484,0.00010341,1.359e-05,0.0,0 STARLINK-4724,1 53702U 22107C   24064.01288097  .00001359  00000-0  10341-3 0  9990,2 53702  53.2165 291.6015 0001383 106.5660 253.5484 15.08848430 83254,6917.855,95.437,540.676,538.763,0.0
53702.0,STARLINK-4724,PAYLOAD,2024-03-04 08:15:28,15.08853107,0.000132,53.2169,290.1156,95.8404,264.2739,0.00021272,3.1e-05,0.0,0 STARLINK-4724,1 53702U 22107C   24064.34407428  .00003100  00000-0  21272-3 0  9998,2 53702  53.2169 290.1156 0001320  95.8404 264.2739 15.08853107 84086,6917.84,95.437,540.618,538.792,0.0
53702.0,STARLINK-4724,PAYLOAD,2024-03-04 22:33:55,15.08864863,0.0001315,53.2161,287.4403,86.2915,273.8227,0.00050502,7.764e-05,0.0,0 STARLINK-4724,1 53702U 22107C   24064.94022834  .00007764  00000-0  50502-3 0  9996,2 53702  53.2161 287.4403 0001315  86.2915 273.8227 15.08864863 84176,6917.804,95.436,540.579,538.76,0.0
53702.0,STARLINK-4724,PAYLOAD,2024-03-05 20:49:20,15.08834623,0.0001298,53.216,283.2774,81.4094,278.7045,-0.00022497,-3.866e-05,0.0,0 STARLINK-4724,1 53702U 22107C   24065.86760252 -.00003866  00000-0 -22497-3 0  9994,2 53702  53.2160 283.2774 0001298  81.4094 278.7045 15.08834623 83537,6917.897,95.438,540.66,538.864,0.0
53702.0,STARLINK-4724,PAYLOAD,2024-03-06 00:00:06,15.08833133,0.0001392,53.2153,282.682,82.9334,277.1817,-0.00027083,-4.595e-05,0.0,0 STARLINK-4724,1 53702U 22107C   24066.00008033 -.00004595  00000-0 -27083-3 0  9999,2 53702  53.2153 282.6820 0001392  82.9334 277.1817 15.08833133 84336,6917.901,95.438,540.729,538.803,0.0
53702.0,STARLINK-4724,PAYLOAD,2024-03-06 19:04:44,15.0884681,0.0001432,53.2155,279.1147,77.8517,282.2635,0.0002093,3.045e-05,0.0,0 STARLINK-4724,1 53702U 22107C   24066.79495816  .00003045  00000-0  20930-3 0  9995,2 53702  53.2155 279.1147 0001432  77.8517 282.2635 15.08846810 83679,6917.86,95.437,540.715,538.734,0.0
53702.0,STARLINK-4724,PAYLOAD,2024-03-06 20:40:07,15.08845855,0.0001452,53.2158,278.8173,75.5523,284.563,0.00039726,6.041e-05,0.0,0 STARLINK-4724,1 53702U 22107C   24066.86119984  .00006041  00000-0  39726-3 0  9994,2 53702  53.2158 278.8173 0001452  75.5523 284.5630 15.08845855 84467,6917.862,95.437,540.732,538.723,0.0
53702.0,STARLINK-4724,PAYLOAD,2024-03-08 14:00:09,15.08844337,0.0001525,53.2154,271.08,105.4282,254.6878,0.00014841,2.075e-05,0.0,0 STARLINK-4724,1 53702U 22107C   24068.58344298  .00002075  00000-0  14841-3 0  9997,2 53702  53.2154 271.0800 0001525 105.4282 254.6878 15.08844337 84726,6917.867,95.437,540.787,538.677,0.0
53702.0,STARLINK-4724,PAYLOAD,2024-03-08 20:21:41,15.08851182,0.0001404,53.2154,269.8981,87.0278,273.0875,0.00027642,4.115e-05,0.0,0 STARLINK-4724,1 53702U 22107C   24068.84840131  .00004115  00000-0  27642-3 0  9993,2 53702  53.2154 269.8981 0001404  87.0278 273.0875 15.08851182 83982,6917.846,95.437,540.682,538.74,0.0
53702.0,STARLINK-4724,PAYLOAD,2024-03-09 05:54:01,15.08839547,0.0001885,53.2157,268.1109,87.8588,272.262,8.819e-05,1.116e-05,0.0,0 STARLINK-4724,1 53702U 22107C   24069.24584516  .00001116  00000-0  88190-4 0  9994,2 53702  53.2157 268.1109 0001885  87.8588 272.2620 15.08839547 84042,6917.882,95.438,541.051,538.443,0.0
53702.0,STARLINK-4724,PAYLOAD,2024-03-09 20:12:29,15.08841435,0.0001228,53.2148,265.4358,83.2505,276.8627,0.0001026,1.345e-05,0.0,0 STARLINK-4724,1 53702U 22107C   24069.84200422  .00001345  00000-0  10260-3 0  9997,2 53702  53.2148 265.4358 0001228  83.2505 276.8627 15.08841435 84910,6917.876,95.437,540.591,538.891,0.0
53702.0,STARLINK-4724,PAYLOAD,2024-03-10 08:55:33,15.08847524,0.0001522,53.2131,263.0559,83.67,276.4465,0.00026058,3.862e-05,0.0,0 STARLINK-4724,1 53702U 22107C   24070.37192118  .00003862  00000-0  26058-3 0  9997,2 53702  53.2131 263.0559 0001522  83.6700 276.4465 15.08847524 84211,6917.857,95.437,540.775,538.669,0.0
53702.0,STARLINK-4724,PAYLOAD,2024-03-10 20:03:15,15.08852269,0.0001418,53.2143,260.9741,83.6385,276.4768,0.00028818,4.303e-05,0.0,0 STARLINK-4724,1 53702U 22107C   24070.83559774  .00004303  00000-0  28818-3 0  9990,2 53702  53.2143 260.9741 0001418  83.6385 276.4768 15.08852269 85068,6917.843,95.437,540.689,538.727,0.0
53702.0,STARLINK-4724,PAYLOAD,2024-03-11 05:35:34,15.08841227,9.76e-05,53.2149,259.1913,95.8397,264.2706,-2.5854e-05,-6.99e-06,0.0,0 STARLINK-4724,1 53702U 22107C   24071.23303876 -.00000699  00000-0 -25854-4 0  9999,2 53702  53.2149 259.1913 0000976  95.8397 264.2706 15.08841227 84340,6917.877,95.437,540.417,539.066,0.0
53702.0,STARLINK-4724,PAYLOAD,2024-03-11 21:29:26,15.08830317,0.0001321,53.2147,256.2153,91.3344,268.78,-0.00015199,-2.705e-05,0.0,0 STARLINK-4724,1 53702U 22107C   24071.89544585 -.00002705  00000-0 -15199-3 0  9995,2 53702  53.2147 256.2153 0001321  91.3344 268.7800 15.08830317 84443,6917.91,95.438,540.689,538.861,0.0
53702.0,STARLINK-4724,PAYLOAD,2024-03-12 11:47:53,15.08839822,0.0001168,53.2173,253.5346,255.8834,104.2029,-2.513e-05,-6.88e-06,0.0,0 STARLINK-4724,1 53702U 22107C   24072.49159563 -.00000688  00000-0 -25130-4 0  9995,2 53702  53.2173 253.5346 0001168 255.8834 104.2029 15.08839822 84533,6917.881,95.438,540.554,538.938,0.0
53702.0,STARLINK-4724,PAYLOAD,2024-03-12 21:20:11,15.08871015,0.0001653,53.2143,251.7547,95.0598,265.0583,0.00041195,6.28e-05,0.0,0 STARLINK-4724,1 53702U 22107C   24072.88902367  .00006280  00000-0  41195-3 0  9996,2 53702  53.2143 251.7547 0001653  95.0598 265.0583 15.08871015 85377,6917.786,95.436,540.794,538.507,0.0
53702.0,STARLINK-4724,PAYLOAD,2024-03-13 05:17:08,15.08845362,0.0001077,53.2177,250.266,97.8287,262.2828,5.3776e-05,5.68e-06,0.0,0 STARLINK-4724,1 53702U 22107C   24073.22023159  .00000568  00000-0  53776-4 0  9990,2 53702  53.2177 250.2660 0001077  97.8287 262.2828 15.08845362 84645,6917.864,95.437,540.474,538.984,0.0
53702.0,STARLINK-4724,PAYLOAD,2024-03-13 21:11:00,15.08836903,0.0002019,53.2099,247.2935,91.3569,268.7655,-0.00021877,-3.768e-05,0.0,0 STARLINK-4724,1 53702U 22107C   24073.88264228 -.00003768  00000-0 -21877-3 0  9999,2 53702  53.2099 247.2935 0002019  91.3569 268.7655 15.08836903 84749,6917.89,95.438,541.152,538.358,0.0
53702.0,STARLINK-4724,PAYLOAD,2024-03-14 05:07:56,15.08836493,0.0002035,53.211,245.8069,92.3942,267.7283,-0.00016718,-2.948e-05,0.0,0 STARLINK-4724,1 53702U 22107C   24074.21384332 -.00002948  00000-0 -16718-3 0  9993,2 53702  53.2110 245.8069 0002035  92.3942 267.7283 15.08836493 85571,6917.891,95.438,541.164,538.348,0.0
